*******************************************************************************
 Revised: Jul 11, 2019                  EM-L2                              3012
                               (Earth-Moon Lagrange 2)       

  #1) The Earth-Moon Lagrange-2 point (EM-L2) is an equilibirium location where
       the Moon's gravitational field partially counters that of the Earth.

  #2) This point is past the Moon on the Earth-Moon line, about 116.783% of 
       the EM distance (416300 to 475000 km from Earth center, averaging 
       ~449600 km), or 16.783% of the EM distance from the Moon, in the 
       direction away from the Earth (59800 to 68300 km from Moon center, 
       averaging ~64600 km).

  #4) EM-L2 is an unstable equilibrium point. This means an object at that 
       location will remain there unless disturbed, whereupon it will move 
       away.  In practice, there will always be some disturbance. 

 Time-span available: 1900-Jan-01 to 2151-Jan-01
*******************************************************************************


*******************************************************************************
Ephemeris / WWW_USER Sun Jan 30 17:53:35 2022 Pasadena, USA      / Horizons
*******************************************************************************
Target body name: EM-L2 (3012)                    {source: Earth-Moon_L2}
Center body name: Solar System Barycenter (0)     {source: DE441}
Center-site name: BODY CENTER
*******************************************************************************
Start time      : A.D. 2020-Jan-01 00:00:00.0000 TDB
Stop  time      : A.D. 2022-Mar-01 00:00:00.0000 TDB
Step-size       : 360 minutes
*******************************************************************************
Center geodetic : 0.00000000,0.00000000,0.0000000 {E-lon(deg),Lat(deg),Alt(km)}
Center cylindric: 0.00000000,0.00000000,0.0000000 {E-lon(deg),Dxy(km),Dz(km)}
Center radii    : (undefined)                                                  
Output units    : AU-D
Output type     : GEOMETRIC cartesian states
Output format   : 2 (position and velocity)
Reference frame : ICRF
*******************************************************************************
JDTDB
   X     Y     Z
   VX    VY    VZ
*******************************************************************************
$$SOE
2459357.000000000 = A.D. 2021-May-22 12:00:00.0000 TDB 
 X =-4.960996951250435E-01 Y =-8.106896013951435E-01 Z =-3.510244643841514E-01
 VX= 1.491984921522415E-02 VY=-8.270894107393316E-03 VZ=-3.619463304348454E-03
2459357.250000000 = A.D. 2021-May-22 18:00:00.0000 TDB 
 X =-4.923600934105634E-01 Y =-8.127493063513810E-01 Z =-3.519263397399072E-01
 VX= 1.499690912763221E-02 VY=-8.206317078545054E-03 VZ=-3.595337674405916E-03
2459357.500000000 = A.D. 2021-May-23 00:00:00.0000 TDB 
 X =-4.886012759851106E-01 Y =-8.147925448408315E-01 Z =-3.528220311343206E-01
 VX= 1.507354371063533E-02 VY=-8.139159357975446E-03 VZ=-3.569987179610162E-03
2459357.750000000 = A.D. 2021-May-23 06:00:00.0000 TDB 
 X =-4.848233728645296E-01 Y =-8.168186699829638E-01 Z =-3.537112292583892E-01
 VX= 1.514956237925651E-02 VY=-8.069409538228612E-03 VZ=-3.543388030415358E-03
2459358.000000000 = A.D. 2021-May-23 12:00:00.0000 TDB 
 X =-4.810265624959031E-01 Y =-8.188270337821730E-01 Z =-3.545936195974246E-01
 VX= 1.522476848763836E-02 VY=-7.997070289751836E-03 VZ=-3.515522478487841E-03
2459358.250000000 = A.D. 2021-May-23 18:00:00.0000 TDB 
 X =-4.772110730985848E-01 Y =-8.208169907800150E-01 Z =-3.554688840206973E-01
 VX= 1.529896076184434E-02 VY=-7.922159401871484E-03 VZ=-3.486379445311234E-03
2459358.500000000 = A.D. 2021-May-24 00:00:00.0000 TDB 
 X =-4.733771836179732E-01 Y =-8.227879019501251E-01 Z =-3.563367025227760E-01
 VX= 1.537193496313547E-02 VY=-7.844710676325320E-03 VZ=-3.455955103654218E-03
2459358.750000000 = A.D. 2021-May-24 06:00:00.0000 TDB 
 X =-4.695252242363032E-01 Y =-8.247391387937468E-01 Z =-3.571967551021321E-01
 VX= 1.544348576491923E-02 VY=-7.764774631743482E-03 VZ=-3.424253390650390E-03
2459359.000000000 = A.D. 2021-May-24 12:00:00.0000 TDB 
 X =-4.656555763902039E-01 Y =-8.266700875835585E-01 Z =-3.580487237572343E-01
 VX= 1.551340881629527E-02 VY=-7.682418979178043E-03 VZ=-3.391286431114877E-03
2459359.250000000 = A.D. 2021-May-24 18:00:00.0000 TDB 
 X =-4.617686722528202E-01 Y =-8.285801536939673E-01 Z =-3.588922945751010E-01
 VX= 1.558150295497016E-02 VY=-7.597728832755821E-03 VZ=-3.357074850591919E-03
2459359.500000000 = A.D. 2021-May-25 00:00:00.0000 TDB 
 X =-4.578649936488242E-01 Y =-8.304687659477841E-01 Z =-3.597271598823713E-01
 VX= 1.564757252265626E-02 VY=-7.510806625791442E-03 VZ=-3.321647959620105E-03
2459359.750000000 = A.D. 2021-May-25 06:00:00.0000 TDB 
 X =-4.539450703834462E-01 Y =-8.323353809027967E-01 Z =-3.605530204247114E-01
 VX= 1.571142972770003E-02 VY=-7.421771711098602E-03 VZ=-3.285043793897481E-03
2459360.000000000 = A.D. 2021-May-25 12:00:00.0000 TDB 
 X =-4.500094779813268E-01 Y =-8.341794869976861E-01 Z =-3.613695875370365E-01
 VX= 1.577289699318166E-02 VY=-7.330759634575666E-03 VZ=-3.247308999209999E-03
2459360.250000000 = A.D. 2021-May-25 18:00:00.0000 TDB 
 X =-4.460588348469781E-01 Y =-8.360006084754635E-01 Z =-3.621765852648891E-01
 VX= 1.583180922482768E-02 VY=-7.237921082949688E-03 VZ=-3.208498555226044E-03
2459360.500000000 = A.D. 2021-May-26 00:00:00.0000 TDB 
 X =-4.420937988752185E-01 Y =-8.377983090043861E-01 Z =-3.629737523965510E-01
 VX= 1.588801593239346E-02 VY=-7.143420519203855E-03 VZ=-3.168675338097314E-03
2459360.750000000 = A.D. 2021-May-26 06:00:00.0000 TDB 
 X =-4.381150635562807E-01 Y =-8.395721949212905E-01 Z =-3.637608443662359E-01
 VX= 1.594138314048715E-02 VY=-7.047434531870188E-03 VZ=-3.127909528016908E-03
2459361.000000000 = A.D. 2021-May-26 12:00:00.0000 TDB 
 X =-4.341233536357103E-01 Y =-8.413219180303354E-01 Z =-3.645376349910070E-01
 VX= 1.599179503054960E-02 VY=-6.950149936253199E-03 VZ=-3.086277874026238E-03
2459361.250000000 = A.D. 2021-May-26 18:00:00.0000 TDB 
 X =-4.301194204025670E-01 Y =-8.430471779010118E-01 Z =-3.653039180078909E-01
 VX= 1.603915526504936E-02 VY=-6.851761676348969E-03 VZ=-3.043862834294272E-03
2459361.500000000 = A.D. 2021-May-27 00:00:00.0000 TDB 
 X =-4.261040366903735E-01 Y =-8.447477236225538E-01 Z =-3.660595083828488E-01
 VX= 1.608338795614034E-02 VY=-6.752470583915695E-03 VZ=-3.000751614810790E-03
2459361.750000000 = A.D. 2021-May-27 06:00:00.0000 TDB 
 X =-4.220779916829870E-01 Y =-8.464233549866971E-01 Z =-3.668042433694962E-01
 VX= 1.612443825485652E-02 VY=-6.652481056975269E-03 VZ=-2.957035133482713E-03
2459362.000000000 = A.D. 2021-May-27 12:00:00.0000 TDB 
 X =-4.180420856217257E-01 Y =-8.480739230866949E-01 Z =-3.675379833025719E-01
 VX= 1.616227255153815E-02 VY=-6.551998722050057E-03 VZ=-2.912806939037478E-03
2459362.250000000 = A.D. 2021-May-27 18:00:00.0000 TDB 
 X =-4.139971245105769E-01 Y =-8.496993303364853E-01 Z =-3.682606121186373E-01
 VX= 1.619687829288954E-02 VY=-6.451228143429757E-03 VZ=-2.868162115012748E-03
2459362.500000000 = A.D. 2021-May-28 00:00:00.0000 TDB 
 X =-4.099439149131607E-01 Y =-8.512995299292839E-01 Z =-3.689720376040302E-01
 VX= 1.622826343520217E-02 VY=-6.350370638749515E-03 VZ=-2.823196198654006E-03
2459362.750000000 = A.D. 2021-May-28 06:00:00.0000 TDB 
 X =-4.058832589286596E-01 Y =-8.528745247689317E-01 Z =-3.696721913773370E-01
 VX= 1.625645556568036E-02 VY=-6.249622253483537E-03 VZ=-2.778004142562920E-03
2459363.000000000 = A.D. 2021-May-28 12:00:00.0000 TDB 
 X =-4.018159494246004E-01 Y =-8.544243659193830E-01 Z =-3.703610286202250E-01
 VX= 1.628150073400084E-02 VY=-6.149171938073962E-03 VZ=-2.732679343728618E-03
2459363.250000000 = A.D. 2021-May-28 18:00:00.0000 TDB 
 X =-3.977427655928630E-01 Y =-8.559491506274012E-01 Z =-3.710385275761442E-01
 VX= 1.630346204369538E-02 VY=-6.049199961103083E-03 VZ=-2.687312760485197E-03
2459363.500000000 = A.D. 2021-May-29 00:00:00.0000 TDB 
 X =-3.936644688822499E-01 Y =-8.574490199805108E-01 Z =-3.717046888409554E-01
 VX= 1.632241805753229E-02 VY=-5.949876581016871E-03 VZ=-2.641992133191628E-03
2459363.750000000 = A.D. 2021-May-29 06:00:00.0000 TDB 
 X =-3.895817993471385E-01 Y =-8.589241562665089E-01 Z =-3.723595344728762E-01
 VX= 1.633846107277265E-02 VY=-5.851360987893395E-03 VZ=-2.596801319476027E-03
2459364.000000000 = A.D. 2021-May-29 12:00:00.0000 TDB 
 X =-3.854954724378468E-01 Y =-8.603747801023945E-01 Z =-3.730031069512108E-01
 VX= 1.635169532114431E-02 VY=-5.753800516378842E-03 VZ=-2.551819749828274E-03
2459364.250000000 = A.D. 2021-May-29 18:00:00.0000 TDB 
 X =-3.814061762449974E-01 Y =-8.618011473996573E-01 Z =-3.736354680141884E-01
 VX= 1.636223514507939E-02 VY=-5.657330121592120E-03 VZ=-2.507122004697290E-03
2459364.500000000 = A.D. 2021-May-30 00:00:00.0000 TDB 
 X =-3.773145691978875E-01 Y =-8.632035462298439E-01 Z =-3.742566974059938E-01
 VX= 1.637020319672643E-02 VY=-5.562072102269874E-03 VZ=-2.462777510157241E-03
2459364.750000000 = A.D. 2021-May-30 06:00:00.0000 TDB 
 X =-3.732212782060009E-01 Y =-8.645822936495876E-01 Z =-3.748668915618998E-01
 VX= 1.637572869979613E-02 VY=-5.468136049133726E-03 VZ=-2.418850345652090E-03
2459365.000000000 = A.D. 2021-May-30 12:00:00.0000 TDB 
 X =-3.691268972237248E-01 Y =-8.659377325381400E-01 Z =-3.754661622583907E-01
 VX= 1.637894580707617E-02 VY=-5.375618992068558E-03 VZ=-2.375399154560230E-03
2459365.250000000 = A.D. 2021-May-30 18:00:00.0000 TDB 
 X =-3.650319862109715E-01 Y =-8.672702284935997E-01 Z =-3.760546352526579E-01
 VX= 1.637999207918351E-02 VY=-5.284605717419782E-03 VZ=-2.332477146540871E-03
2459365.500000000 = A.D. 2021-May-31 00:00:00.0000 TDB 
 X =-3.609370704570051E-01 Y =-8.685801668265795E-01 Z =-3.766324489328585E-01
 VX= 1.637900710269943E-02 VY=-5.195169225239343E-03 VZ=-2.290132179211321E-03
